satname,norad_id,inclination_deg,eccentricity,mean_motion_rev_per_day,perigee_km,apogee_km,l1,l2
STARLINK-1276,45368,53.0542,0.0001271,15.06396789,546.3411861557497,548.1016122608298,1 45368U 20019J   25285.59837927  .00000226  00000+0  34065-4 0  9991,2 45368  53.0542 111.4275 0001271  89.8397 270.2738 15.06396789307411
STARLINK-1277,45369,53.0536,0.0001418,15.06394206,546.2472988271302,548.2113327142824,1 45369U 20019K   25285.59108611  .00000456  00000+0  49510-4 0  9999,2 45369  53.0536 112.0873 0001418  89.2330 270.8822 15.06394206307401
STARLINK-1281,45370,53.053,0.0001329,15.06394008,546.3095413521305,548.150303880162,1 45370U 20019L   25285.58731904 -.00000007  00000+0  18428-4 0  9994,2 45370  53.0530 111.4764 0001329  90.1988 269.9154 15.06394008307418
STARLINK-1300,45374,53.0535,9.78e-05,15.06474692,546.3053704728018,547.659923875789,1 45374U 20019Q   25285.60940850 -.00021255  00000+0 -14095-2 0  9996,2 45374  53.0535 111.3740 0000978  69.4047 290.7047 15.06474692307415
STARLINK-1302,45375,53.0535,0.0001356,15.06392502,546.2954579430907,548.1736187042834,1 45375U 20019R   25285.55783812  .00000156  00000+0  29395-4 0  9990,2 45375  53.0535 111.6088 0001356  93.3819 266.7325 15.06392502307408
STARLINK-1304,45376,53.0534,0.0001342,15.06391179,546.3092077601423,548.1679785693477,1 45376U 20019S   25285.57626634  .00000739  00000+0  68547-4 0  9990,2 45376  53.0534 111.5257 0001342  90.9804 269.1339 15.06391179307408
STARLINK-1305,45377,53.0534,0.000156,15.06565804,545.6231640552996,547.7837142723201,1 45377U 20019T   25285.60199715  .00056960  00000+0  37951-2 0  9990,2 45377  53.0534 111.4069 0001560 107.0100 253.1060 15.06565804307413
STARLINK-1319,45379,53.0543,0.0001449,15.06394032,546.2263634026858,548.2333347155436,1 45379U 20019V   25285.59469145  .00000038  00000+0  21446-4 0  9996,2 45379  53.0543 111.4450 0001449  93.5836 266.5319 15.06394032307418
STARLINK-1266,45383,53.0528,0.0001483,15.06393631,546.2040459887703,548.2581101607266,1 45383U 20019Z   25285.46383757  .00000808  00000+0  73123-4 0  9995,2 45383  53.0528  92.0322 0001483  87.5411 272.5748 15.06393631307662
STARLINK-1267,45384,53.0541,0.0001288,15.06388665,546.3543089297564,548.1382876673979,1 45384U 20019AA  25285.58187333  .00000489  00000+0  51752-4 0  9990,2 45384  53.0541  92.1569 0001288  93.6543 266.4593 15.06388665307671
STARLINK-1272,45386,53.0529,0.0001346,15.06412782,546.2402365832431,548.104529869207,1 45386U 20019AC  25285.58915966  .00011752  00000+0  80623-3 0  9996,2 45386  53.0529  91.4678 0001346  93.7631 266.3512 15.06412782307685
STARLINK-1274,45387,53.0379,0.0006224,15.27129015,480.1285967619906,488.67108262003785,1 45387U 20019AD  25285.55619978  .00106011  00000+0  38875-2 0  9992,2 45387  53.0379  79.7835 0006224 151.8702 208.2634 15.27129015307843
STARLINK-1280,45388,53.0545,0.0001449,15.06402109,546.2016120951266,548.2085762340157,1 45388U 20019AE  25283.98762353  .00000861  00000+0  76655-4 0  9990,2 45388  53.0545 118.6566 0001449  90.0517 270.0638 15.06402109307155
STARLINK-1283,45389,53.0539,0.0001412,15.25057271,489.64359777984646,491.5833329112602,1 45389U 20019AF  25285.66668981  .02016434  00000+0  71749-1 0  9991,2 45389  53.0539  90.5236 0001412 113.5724  55.7267 15.25057271  5701
STARLINK-1284,45390,53.0548,0.0001314,15.06404301,546.288386955689,548.1083650925075,1 45390U 20019AG  25285.46754122  .00001986  00000+0  15218-3 0  9999,2 45390  53.0548  92.0157 0001314  88.3767 271.7373 15.06404301307666
STARLINK-1292,45394,53.048,0.0006122,15.82794195,318.440802800269,326.6451153421549,1 45394U 20019AL  25285.66668981  .00441669  00000+0  19461-2 0  9991,2 45394  53.0480  52.3977 0006122 295.2533 173.8664 15.82794195  5944
STARLINK-1297,45395,53.0535,0.0001148,15.06394014,546.4348721062825,548.0249363474932,1 45395U 20019AM  25285.57072435 -.00003610  00000+0 -22365-3 0  9995,2 45395  53.0535  91.5498 0001148  95.0090 265.1030 15.06394014306865
STARLINK-1307,45397,53.054,0.0001217,15.06391413,546.3950578591339,548.0806941039482,1 45397U 20019AP  25285.56336161  .00000750  00000+0  69223-4 0  9990,2 45397  53.0540  91.5809 0001217  93.9710 266.1418 15.06391413307505
STARLINK-1312,45398,53.0463,0.0002565,15.83543533,318.7107543188886,322.1471186443041,1 45398U 20019AQ  25285.66668981  .00410468  00000+0  17536-2 0  9999,2 45398  53.0463  51.9571 0002565 240.9171  20.2494 15.83543533  5985
STARLINK-1255,45399,53.0542,0.0001177,15.10568075,533.6527777329447,535.280004571222,1 45399U 20019AR  25285.66668981  .02085446  00000+0  11369+0 0  9991,2 45399  53.0542  81.0868 0001177  86.1142 307.3156 15.10568075  5817
STARLINK-1259,45403,53.0452,0.0002051,15.98642142,276.81999766733225,279.55042103760934,1 45403U 20019AV  25285.66668981  .00546495  13951-3  11307-2 0  9999,2 45403  53.0452  31.8503 0002051  14.4400 226.7898 15.98642142  5973
STARLINK-1260,45404,53.0529,0.0001966,15.06398607,545.8543029200937,548.577351651782,1 45404U 20019AW  25285.43159052  .00000162  00000+0  29789-4 0  9997,2 45404  53.0529  82.1734 0001966  92.0855 268.0360 15.06398607307515
STARLINK-1263,45405,53.0538,0.0001298,15.06395923,546.3251415195355,548.1229652489938,1 45405U 20019AX  25285.54954407 -.00000067  00000+0  14416-4 0  9993,2 45405  53.0538  81.6442 0001298  89.6413 270.4724 15.06395923307537
STARLINK-1265,45406,53.0539,0.0001324,15.06390835,546.322727617563,548.156567353818,1 45406U 20019AY  25285.55691774  .00000331  00000+0  41098-4 0  9999,2 45406  53.0539  81.6115 0001324  88.4322 271.6818 15.06390835307536
STARLINK-1278,45408,53.0522,0.0001277,15.06391174,546.3542380239705,548.1229789543777,1 45408U 20019BA  25285.58362408 -.00004553  00000+0 -28702-3 0  9991,2 45408  53.0522 111.4924 0001277  81.0396 279.0738 15.06391174307122
STARLINK-1296,45412,53.054,0.0001324,15.06394815,546.3105310090004,548.144367515165,1 45412U 20019BE  25285.56059873  .00001116  00000+0  93819-4 0  9995,2 45412  53.0540  81.5943 0001324  90.1695 269.9446 15.06394815307535
STARLINK-1298,45413,53.0494,0.0007652,15.47963019,417.48172814290683,427.8897072300542,1 45413U 20019BF  25285.66668981  .00122193  00000+0  22732-2 0  9996,2 45413  53.0494  63.1120 0007652 201.7644  54.6647 15.47963019  5902
STARLINK-1309,45414,53.0534,0.0001472,15.06393877,546.2109100448597,548.249738185079,1 45414U 20019BG  25285.44264736  .00000845  00000+0  75603-4 0  9999,2 45414  53.0534  82.1251 0001472  89.6528 270.4630 15.06393877307507
STARLINK-1316,45415,53.054,0.0001243,15.06394715,546.3669329103159,548.0885785885948,1 45415U 20019BH  25285.46844895 -.00000284  00000+0 -19545-6 0  9996,2 45415  53.0540  82.0069 0001243  93.3934 266.7197 15.06394715307542
STARLINK-1318,45416,53.0525,0.0002088,15.58063218,391.84895628631784,394.67669285305783,1 45416U 20019BJ  25285.65083467  .00060286  00000+0  78876-3 0  9993,2 45416  53.0525  55.9203 0002088 326.5403  33.5476 15.58063218307914
STARLINK-1286,45417,53.0514,0.0001427,15.06392409,546.2465727984782,548.2230739168645,1 45417U 20019BK  25285.57256389 -.00005840  00000+0 -37358-3 0  9997,2 45417  53.0514 111.5411 0001427  98.6678 261.4473 15.06392409307391
STARLINK-1308,45419,53.0523,0.0001358,15.06392585,546.2938185181838,548.1747493589019,1 45419U 20019BM  25285.56889243  .00000422  00000+0  47248-4 0  9998,2 45419  53.0523 111.5582 0001358  95.9119 264.2025 15.06392585307147
STARLINK-1329,45531,53.0548,0.0001294,15.06419321,546.2562100480054,548.0484749298412,1 45531U 20025A   25284.87405583  .00005054  00000+0  35776-3 0  9992,2 45531  53.0548  54.6758 0001294  91.0164 269.0973 15.06419321302662
STARLINK-1338,45532,53.0535,0.0001408,15.06389194,546.2695832297914,548.2197707100268,1 45532U 20025B   25285.61497685  .00002120  00000+0  16124-3 0  9997,2 45532  53.0535  51.3471 0001408  91.7542 268.3609 15.06389194302773
STARLINK-1350,45535,53.0765,8.2e-05,15.31660025,470.2975435270082,471.42077889744724,1 45535U 20025E   25285.50043925  .00017106  00000+0  56240-3 0  9995,2 45535  53.0765   6.8137 0000820  95.4299 264.6795 15.31660025303412
STARLINK-1362,45538,53.057,7.03e-05,15.06406049,546.7061679862181,547.6798693868459,1 45538U 20025H   25285.64714629 -.00010750  00000+0 -70377-3 0  9996,2 45538  53.0570  50.9266 0000703 100.6898 259.4171 15.06406049302781
STARLINK-1368,45540,53.0548,0.0001253,15.0639822,546.3492665294052,548.0847602451604,1 45540U 20025K   25285.65182346 -.00000316  00000+0 -23215-5 0  9993,2 45540  53.0548  51.1856 0001253 101.3429 258.7701 15.06398220302777
STARLINK-1371,45542,53.0527,0.0001548,15.06395962,546.1518879817831,548.295979726905,1 45542U 20025M   25285.35694836  .00000530  00000+0  54492-4 0  9990,2 45542  53.0527  52.5093 0001548  86.1197 273.9969 15.06395962302734
STARLINK-1372,45543,53.0559,0.0001151,15.06403785,546.4028511989009,547.9970637665137,1 45543U 20025N   25285.65919658 -.00002573  00000+0 -15391-3 0  9991,2 45543  53.0559  51.1534 0001151  99.7289 260.3830 15.06403785301871
STARLINK-1373,45544,53.0534,0.0001378,15.06387857,546.2944565746084,548.2030928941258,1 45544U 20025P   25285.34589798  .00001530  00000+0  12163-3 0  9990,2 45544  53.0534  52.5575 0001378  90.7286 269.3861 15.06387857302734
STARLINK-1294,45551,53.0511,0.0006924,15.56550683,392.95717385621083,402.3402819321982,1 45551U 20025W   25285.50673062  .00069577  00000+0  96016-3 0  9998,2 45551  53.0511 351.9377 0006924 343.7886  16.2902 15.56550683303608
STARLINK-1323,45553,53.0298,0.000517,16.09710764,244.21133560515773,251.06238577711247,1 45553U 20025Y   25285.55274743  .00874109  43879-3  92495-3 0  9995,2 45553  53.0298 327.7315 0005170  44.2919 315.8528 16.09710764302649
STARLINK-1325,45554,53.0594,0.0002019,15.52040585,409.3982700703509,412.1396302930334,1 45554U 20025Z   25285.66668981  .00307537  00000+0  48313-2 0  9999,2 45554  53.0594 343.8815 0002019  57.0404  40.7307 15.52040585  5927
